[
  {
    "name": "KUIPER-00517",
    "noradId": "69600",
    "line1": "1 69600U 26140J   26192.54814943  .00007900  00000+0  21270-3 0  9992",
    "line2": "2 69600  51.8777 280.7427 0010509 277.9717  82.0077 15.38762147  4982"
  },
  {
    "name": "KUIPER-00520",
    "noradId": "69601",
    "line1": "1 69601U 26140K   26192.56974160  .00022180  00000+0  59962-3 0  9999",
    "line2": "2 69601  51.8837 280.8967 0006615 342.1971  17.8783 15.37628570  4980"
  },
  {
    "name": "KUIPER-00522",
    "noradId": "69602",
    "line1": "1 69602U 26140L   26192.47956345  .00017490  00000+0  45974-3 0  9991",
    "line2": "2 69602  51.8800 281.0380 0013384 249.8642 110.0905 15.38597501  4973"
  },
  {
    "name": "KUIPER-00528",
    "noradId": "69603",
    "line1": "1 69603U 26140M   26192.50707241  .00013985  00000+0  38458-3 0  9999",
    "line2": "2 69603  51.8778 281.2089 0005116 343.9191  16.1633 15.37455088  4971"
  },
  {
    "name": "KUIPER-00532",
    "noradId": "69604",
    "line1": "1 69604U 26140N   26192.58122973  .00009791  00000+0  28023-3 0  9998",
    "line2": "2 69604  51.8806 280.9595 0006268  19.3337 340.7886 15.36578796  4985"
  },
  {
    "name": "KUIPER-00533",
    "noradId": "69605",
    "line1": "1 69605U 26140P   26192.55808564 -.00133268  00000+0 -35574-2 0  9990",
    "line2": "2 69605  51.8797 280.8100 0007555 324.5636  35.4848 15.37994592  4982"
  },
  {
    "name": "KUIPER-00534",
    "noradId": "69606",
    "line1": "1 69606U 26140Q   26192.47462228  .00011202  00000+0  29781-3 0  9990",
    "line2": "2 69606  51.8818 281.0115 0013388 252.9579 106.9941 15.38662919  4970"
  },
  {
    "name": "KUIPER-00537",
    "noradId": "69607",
    "line1": "1 69607U 26140R   26192.59971490  .00011929  00000+0  36403-3 0  9995",
    "line2": "2 69607  51.8811 281.0851 0011007  42.8840 317.3002 15.34296234  4980"
  },
  {
    "name": "KUIPER-00538",
    "noradId": "69608",
    "line1": "1 69608U 26140S   26192.56746150  .00009936  00000+0  27440-3 0  9992",
    "line2": "2 69608  51.8820 280.8775 0006729 330.6202  29.4406 15.37679500  4981"
  },
  {
    "name": "KUIPER-00540",
    "noradId": "69609",
    "line1": "1 69609U 26140T   26192.57758183  .00012977  00000+0  36378-3 0  9992",
    "line2": "2 69609  51.8830 280.9443 0006626  10.8065 349.3063 15.36919037  4980"
  },
  {
    "name": "KUIPER-00541",
    "noradId": "69610",
    "line1": "1 69610U 26140U   26191.90842681  .00013847  00000+0  36978-3 0  9990",
    "line2": "2 69610  51.8827 283.9683 0008333 308.1236  51.8999 15.38356975  4887"
  },
  {
    "name": "KUIPER-00542",
    "noradId": "69611",
    "line1": "1 69611U 26140V   26192.55655432  .00014210  00000+0  38071-3 0  9990",
    "line2": "2 69611  51.8812 280.8032 0007912 300.8666  59.1543 15.38234454  4988"
  },
  {
    "name": "KUIPER-00543",
    "noradId": "69612",
    "line1": "1 69612U 26140W   26192.77693313  .00025967  00000+0  71788-3 0  9998",
    "line2": "2 69612  51.8774 280.0144 0008152  22.6917 337.4428 15.36828687  5011"
  },
  {
    "name": "KUIPER-00544",
    "noradId": "69613",
    "line1": "1 69613U 26140X   26192.49579654  .00017604  00000+0  47072-3 0  9997",
    "line2": "2 69613  51.8799 281.1405 0006516 305.8745  54.1636 15.38126834  4973"
  },
  {
    "name": "KUIPER-00546",
    "noradId": "69614",
    "line1": "1 69614U 26140Y   26192.54029358  .00009228  00000+0  24596-3 0  9994",
    "line2": "2 69614  51.8783 280.6956 0014260 250.2493 109.6956 15.38810193  4980"
  },
  {
    "name": "KUIPER-00547",
    "noradId": "69615",
    "line1": "1 69615U 26140Z   26192.55432916  .00009924  00000+0  27228-3 0  9992",
    "line2": "2 69615  51.8825 280.7951 0010866 277.5828  82.3925 15.37855649  4983"
  }
]